ONEWEB-0201             
1 48241U 21031AH  26176.79944867 -.00000197  00000+0 -56724-3 0  9997
2 48241  87.8964 287.9978 0002216  95.2368 264.9014 13.14501448249515
ONEWEB-0207             
1 48242U 21031AJ  26176.85562231 -.00000135  00000+0 -39833-3 0  9990
2 48242  87.8978 287.9719 0002225  95.9509 264.1874 13.14503050249436
ONEWEB-0208             
1 48243U 21031AK  26176.83739646 -.00001538  00000+0 -41852-2 0  9996
2 48243  87.8990 287.9839 0001849 111.1534 248.9793 13.14490751249448
ONEWEB-0200             
1 48244U 21031AL  26176.80090947 -.00000221  00000+0 -63150-3 0  9992
2 48244  87.8978 287.9762 0002073 101.8687 258.2676 13.14503682249368
ONEWEB-0217             
1 48245U 21031AM  26176.81676609 -.00000002  00000+0 -38748-4 0  9992
2 48245  87.8976 287.9775 0002124 110.6968 249.4389 13.14502200249311
PLEIADES NEO 3          
1 48268U 21034A   26176.82977223  .00000661  00000+0  90610-4 0  9992
2 48268  97.8934 251.4721 0001451  87.8620 272.2759 14.81668923278935
LEMUR-2-AMANDA-SVANTE   
1 48269U 21034B   26176.70423561  .00040479  00000+0  11980-2 0  9993
2 48269  97.5760 255.2162 0003221 184.8321 175.2891 15.34778103282366
AII-BRAVO               
1 48270U 21034C   26176.67318944  .00004522  00000+0  33559-3 0  9995
2 48270  97.5629 231.3913 0004324 216.9031 143.1898 15.03540408280899
TYVAK-182A              
1 48271U 21034D   26176.70093985  .00005818  00000+0  40067-3 0  9996
2 48271  97.5729 235.4703 0004416 309.4827  50.6010 15.06240080281116
NORSAT 3                
1 48272U 21034E   26176.85082611  .00004844  00000+0  34242-3 0  9993
2 48272  97.5301 233.9123 0005952 271.6732  88.3813 15.05333857281149
LEMUR-2-SPECIAL-K       
1 48273U 21034F   26176.71409948  .00209168  00000+0  19286-2 0  9991
2 48273  97.5651 264.2031 0004899 223.4906 136.5968 15.66944972283029
CSS (TIANHE)            
1 48274U 21035A   26176.74214352  .00027491  00000+0  31832-3 0  9998
2 48274  41.4689 269.9263 0007837 150.3803 209.7481 15.61175416294509
STARLINK-2567           
1 48276U 21036A   26176.66731345  .00011897  00000+0  39409-3 0  9999
2 48276  53.1573 268.5794 0000938  83.6176 276.4933 15.31735905285283
STARLINK-2569           
1 48277U 21036B   26176.52137362  .00035760  00000+0  11287-2 0  9992
2 48277  53.1230 231.2516 0001973 332.4582  27.6315 15.32535478285799
STARLINK-2543           
1 48278U 21036C   26176.56752878  .00000491  00000+0  27567-4 0  9995
2 48278  53.1598 242.5047 0001089  81.9381 278.1744 15.31701935285647
STARLINK-2565           
1 48280U 21036E   26176.71738241  .00002209  00000+0  82882-4 0  9993
2 48280  53.1596 318.6028 0001023  74.1665 285.9449 15.31715588284588
STARLINK-2558           
1 48282U 21036G   26176.72490140  .00002095  00000+0  79232-4 0  9997
2 48282  53.1590 292.8181 0001283  79.7090 280.4056 15.31704983284961
STARLINK-2516           
1 48283U 21036H   26176.84606784  .00007060  00000+0  23902-3 0  9993
2 48283  53.1597 292.1887 0001185  79.7107 280.4028 15.31704807284981
STARLINK-2564           
1 48284U 21036J   26176.56649606  .00001612  00000+0  63705-4 0  9996
2 48284  53.1586 294.0038 0001244  94.7138 265.4005 15.31702351284920
STARLINK-2547           
1 48286U 21036L   26176.64566380 -.00001393  00000+0 -33121-4 0  9991
2 48286  53.1616 293.1992 0001754  79.1930 280.9269 15.31705572284942
STARLINK-2566           
1 48287U 21036M   26176.74885823  .00001861  00000+0  71731-4 0  9996
2 48287  53.1577 295.0795 0001012  75.1042 285.0072 15.31698816284926
STARLINK-2545           
1 48289U 21036P   26176.72459406  .00000696  00000+0  34175-4 0  9996
2 48289  53.1594 293.0687 0001102  74.2287 285.8836 15.31707636284956
STARLINK-2555           
1 48291U 21036R   26176.73486580  .00007359  00000+0  24848-3 0  9991
2 48291  53.1596 295.1479 0000928  74.0039 286.1064 15.31724238284922
STARLINK-2542           
1 48292U 21036S   26176.73418991 -.00003701  00000+0 -10758-3 0  9997
2 48292  53.1601 292.5885 0001278  80.7194 279.3952 15.31693031284967
STARLINK-2550           
1 48293U 21036T   26176.61769634  .00000237  00000+0  19395-4 0  9994
2 48293  53.1580 293.2884 0000928  85.3544 274.7563 15.31700922284945
STARLINK-2533           
1 48294U 21036U   26176.86937179  .00002239  00000+0  83868-4 0  9993
2 48294  53.1578 292.0692 0001110  84.7736 275.3392 15.31705961284986
STARLINK-2535           
1 48295U 21036V   26176.62237487 -.00000336  00000+0  92555-6 0  9995
2 48295  53.1572 293.3851 0000232 127.7996 232.3026 15.31699223284948
STARLINK-2559           
1 48298U 21036Y   26176.58666654  .00048976  00000+0  13680-2 0  9994
2 48298  53.1583 292.5823 0003866 319.3567  40.7147 15.36249117284956
STARLINK-2557           
1 48299U 21036Z   26176.72023522  .00002445  00000+0  90533-4 0  9997
2 48299  53.1597 292.7429 0000967 109.3712 250.7394 15.31701930284963
STARLINK-2538           
1 48300U 21036AA  26176.73260778  .00001436  00000+0  58022-4 0  9993
2 48300  53.1590 305.5082 0001048 120.4459 239.6646 15.31705569284788
