OBJECT_NAME,OBJECT_ID,EPOCH,MEAN_MOTION,ECCENTRICITY,INCLINATION,RA_OF_ASC_NODE,ARG_OF_PERICENTER,MEAN_ANOMALY,EPHEMERIS_TYPE,CLASSIFICATION_TYPE,NORAD_CAT_ID,ELEMENT_SET_NO,REV_AT_EPOCH,BSTAR,MEAN_MOTION_DOT,MEAN_MOTION_DDOT
ONEWEB-0201,2021-031AH,2026-06-25T19:11:12.365088,13.14501448,.0002216,87.8964,287.9978,95.2368,264.9014,0,U,48241,999,24951,-.56724E-3,-.197E-5,0
ONEWEB-0207,2021-031AJ,2026-06-25T20:32:05.767584,13.14503050,.0002225,87.8978,287.9719,95.9509,264.1874,0,U,48242,999,24943,-.39833E-3,-.135E-5,0
ONEWEB-0208,2021-031AK,2026-06-25T20:05:51.054144,13.14490751,.0001849,87.8990,287.9839,111.1534,248.9793,0,U,48243,999,24944,-.41852E-2,-.1538E-4,0
ONEWEB-0200,2021-031AL,2026-06-25T19:13:18.578208,13.14503682,.0002073,87.8978,287.9762,101.8687,258.2676,0,U,48244,999,24936,-.6315E-3,-.221E-5,0
ONEWEB-0217,2021-031AM,2026-06-25T19:36:08.590176,13.14502200,.0002124,87.8976,287.9775,110.6968,249.4389,0,U,48245,999,24931,-.38748E-4,-.2E-7,0
PLEIADES NEO 3,2021-034A,2026-06-25T19:54:52.320672,14.81668923,.0001451,97.8934,251.4721,87.8620,272.2759,0,U,48268,999,27893,.9061E-4,.661E-5,0
LEMUR-2-AMANDA-SVANTE,2021-034B,2026-06-25T16:54:05.956704,15.34778103,.0003221,97.5760,255.2162,184.8321,175.2891,0,U,48269,999,28236,.1198E-2,.40479E-3,0
AII-BRAVO,2021-034C,2026-06-25T16:09:23.567616,15.03540408,.0004324,97.5629,231.3913,216.9031,143.1898,0,U,48270,999,28089,.33559E-3,.4522E-4,0
TYVAK-182A,2021-034D,2026-06-25T16:49:21.203040,15.06240080,.0004416,97.5729,235.4703,309.4827,50.6010,0,U,48271,999,28111,.40067E-3,.5818E-4,0
NORSAT 3,2021-034E,2026-06-25T20:25:11.375904,15.05333857,.0005952,97.5301,233.9123,271.6732,88.3813,0,U,48272,999,28114,.34242E-3,.4844E-4,0
LEMUR-2-SPECIAL-K,2021-034F,2026-06-25T17:08:18.195072,15.66944972,.0004899,97.5651,264.2031,223.4906,136.5968,0,U,48273,999,28302,.19286E-2,.209168E-2,0
CSS (TIANHE),2021-035A,2026-06-25T17:48:41.200128,15.61175416,.0007837,41.4689,269.9263,150.3803,209.7481,0,U,48274,999,29450,.31832E-3,.27491E-3,0
STARLINK-2567,2021-036A,2026-06-25T16:00:55.882080,15.31735905,.0000938,53.1573,268.5794,83.6176,276.4933,0,U,48276,999,28528,.39409E-3,.11897E-3,0
STARLINK-2569,2021-036B,2026-06-25T12:30:46.680768,15.32535478,.0001973,53.1230,231.2516,332.4582,27.6315,0,U,48277,999,28579,.11287E-2,.3576E-3,0
STARLINK-2543,2021-036C,2026-06-25T13:37:14.486592,15.31701935,.0001089,53.1598,242.5047,81.9381,278.1744,0,U,48278,999,28564,.27567E-4,.491E-5,0
STARLINK-2565,2021-036E,2026-06-25T17:13:01.840224,15.31715588,.0001023,53.1596,318.6028,74.1665,285.9449,0,U,48280,999,28458,.82882E-4,.2209E-4,0
STARLINK-2558,2021-036G,2026-06-25T17:23:51.480960,15.31704983,.0001283,53.1590,292.8181,79.7090,280.4056,0,U,48282,999,28496,.79232E-4,.2095E-4,0
STARLINK-2516,2021-036H,2026-06-25T20:18:20.261376,15.31704807,.0001185,53.1597,292.1887,79.7107,280.4028,0,U,48283,999,28498,.23902E-3,.706E-4,0
STARLINK-2564,2021-036J,2026-06-25T13:35:45.259584,15.31702351,.0001244,53.1586,294.0038,94.7138,265.4005,0,U,48284,999,28492,.63705E-4,.1612E-4,0
STARLINK-2547,2021-036L,2026-06-25T15:29:45.352320,15.31705572,.0001754,53.1616,293.1992,79.1930,280.9269,0,U,48286,999,28494,-.33121E-4,-.1393E-4,0
STARLINK-2566,2021-036M,2026-06-25T17:58:21.351072,15.31698816,.0001012,53.1577,295.0795,75.1042,285.0072,0,U,48287,999,28492,.71731E-4,.1861E-4,0
STARLINK-2545,2021-036P,2026-06-25T17:23:24.926784,15.31707636,.0001102,53.1594,293.0687,74.2287,285.8836,0,U,48289,999,28495,.34175E-4,.696E-5,0
STARLINK-2555,2021-036R,2026-06-25T17:38:12.405120,15.31724238,.0000928,53.1596,295.1479,74.0039,286.1064,0,U,48291,999,28492,.24848E-3,.7359E-4,0
STARLINK-2542,2021-036S,2026-06-25T17:37:14.008224,15.31693031,.0001278,53.1601,292.5885,80.7194,279.3952,0,U,48292,999,28496,-.10758E-3,-.3701E-4,0
STARLINK-2550,2021-036T,2026-06-25T14:49:28.963776,15.31700922,.0000928,53.1580,293.2884,85.3544,274.7563,0,U,48293,999,28494,.19395E-4,.237E-5,0
STARLINK-2533,2021-036U,2026-06-25T20:51:53.722656,15.31705961,.000111,53.1578,292.0692,84.7736,275.3392,0,U,48294,999,28498,.83868E-4,.2239E-4,0
STARLINK-2535,2021-036V,2026-06-25T14:56:13.188768,15.31699223,.0000232,53.1572,293.3851,127.7996,232.3026,0,U,48295,999,28494,.92555E-6,-.336E-5,0
STARLINK-2559,2021-036Y,2026-06-25T14:04:47.989056,15.36249117,.0003866,53.1583,292.5823,319.3567,40.7147,0,U,48298,999,28495,.1368E-2,.48976E-3,0
STARLINK-2557,2021-036Z,2026-06-25T17:17:08.323008,15.31701930,.0000967,53.1597,292.7429,109.3712,250.7394,0,U,48299,999,28496,.90533E-4,.2445E-4,0
STARLINK-2538,2021-036AA,2026-06-25T17:34:57.312192,15.31705569,.0001048,53.1590,305.5082,120.4459,239.6646,0,U,48300,999,28478,.58022E-4,.1436E-4,0
